NUSAT-48 (HENRIETTA LE*)
1 60498U 24149AG  26068.80506098  .00012988  00000+0  45212-3 0  9999
2 60498  97.3923 150.8264 0002754 263.3026  96.7901 15.29812597 86946
STARLINK-35832          
1 66495U 25263L   26068.12481431  .00046717  00000+0  16968-2 0  9990
2 66495  43.0046 353.7896 0001688 256.5212 103.5452 15.27574085 18818
