[{"OBJECT_NAME":"NUSAT-48 (HENRIETTA LEAVITT)","OBJECT_ID":"2024-149AG","EPOCH":"2026-03-09T19:19:17.269536","MEAN_MOTION":15.29812597,"ECCENTRICITY":0.00027538,"INCLINATION":97.3923,"RA_OF_ASC_NODE":150.8264,"ARG_OF_PERICENTER":263.3026,"MEAN_ANOMALY":96.7901,"EPHEMERIS_TYPE":0,"CLASSIFICATION_TYPE":"U","NORAD_CAT_ID":60498,"ELEMENT_SET_NO":999,"REV_AT_EPOCH":8694,"BSTAR":0.00045211745,"MEAN_MOTION_DOT":0.00012988,"MEAN_MOTION_DDOT":0},{"OBJECT_NAME":"STARLINK-35832","OBJECT_ID":"2025-263L","EPOCH":"2026-03-09T02:59:43.956384","MEAN_MOTION":15.27574085,"ECCENTRICITY":0.00016887,"INCLINATION":43.0046,"RA_OF_ASC_NODE":353.7896,"ARG_OF_PERICENTER":256.5212,"MEAN_ANOMALY":103.5452,"EPHEMERIS_TYPE":0,"CLASSIFICATION_TYPE":"U","NORAD_CAT_ID":66495,"ELEMENT_SET_NO":999,"REV_AT_EPOCH":1881,"BSTAR":0.0016967746,"MEAN_MOTION_DOT":0.00046717,"MEAN_MOTION_DDOT":0}]
